{"fetchedAt":"2026-06-29T18:07:57.466Z","satellites":[{"id":"54678","name":"ONEWEB-0659","constellationId":"oneweb","omm":{"OBJECT_NAME":"ONEWEB-0659","OBJECT_ID":"2022-166AN","EPOCH":"2026-06-28T16:10:41.165184","MEAN_MOTION":13.21837694,"ECCENTRICITY":0.00021758,"INCLINATION":87.9245,"RA_OF_ASC_NODE":241.7029,"ARG_OF_PERICENTER":97.4571,"MEAN_ANOMALY":262.681,"EPHEMERIS_TYPE":0,"CLASSIFICATION_TYPE":"U","NORAD_CAT_ID":54678,"ELEMENT_SET_NO":999,"REV_AT_EPOCH":17304,"BSTAR":-0.0040309563,"MEAN_MOTION_DOT":-0.00001652,"MEAN_MOTION_DDOT":0}},{"id":"54679","name":"ONEWEB-0685","constellationId":"oneweb","omm":{"OBJECT_NAME":"ONEWEB-0685","OBJECT_ID":"2022-166AP","EPOCH":"2026-06-28T16:10:31.999008","MEAN_MOTION":13.2184778,"ECCENTRICITY":0.00018833,"INCLINATION":87.9243,"RA_OF_ASC_NODE":241.6947,"ARG_OF_PERICENTER":87.6002,"MEAN_ANOMALY":272.5348,"EPHEMERIS_TYPE":0,"CLASSIFICATION_TYPE":"U","NORAD_CAT_ID":54679,"ELEMENT_SET_NO":999,"REV_AT_EPOCH":17293,"BSTAR":-0.000028078993,"MEAN_MOTION_DOT":1e-8,"MEAN_MOTION_DDOT":0}},{"id":"54680","name":"ONEWEB-0712","constellationId":"oneweb","omm":{"OBJECT_NAME":"ONEWEB-0712","OBJECT_ID":"2022-166AQ","EPOCH":"2026-06-29T12:33:52.128000","MEAN_MOTION":13.16594967,"ECCENTRICITY":0.0001587,"INCLINATION":87.9092,"RA_OF_ASC_NODE":226.3248,"ARG_OF_PERICENTER":100.4192,"MEAN_ANOMALY":259.7118,"EPHEMERIS_TYPE":0,"CLASSIFICATION_TYPE":"U","NORAD_CAT_ID":54680,"ELEMENT_SET_NO":999,"REV_AT_EPOCH":17368,"BSTAR":-0.000004256,"MEAN_MOTION_DOT":1.1e-7,"MEAN_MOTION_DDOT":0}},{"id":"54681","name":"ONEWEB-0714","constellationId":"oneweb","omm":{"OBJECT_NAME":"ONEWEB-0714","OBJECT_ID":"2022-166AR","EPOCH":"2026-06-28T16:17:56.824224","MEAN_MOTION":13.21824962,"ECCENTRICITY":0.00017824,"INCLINATION":87.9246,"RA_OF_ASC_NODE":241.6914,"ARG_OF_PERICENTER":103.2508,"MEAN_ANOMALY":256.8825,"EPHEMERIS_TYPE":0,"CLASSIFICATION_TYPE":"U","NORAD_CAT_ID":54681,"ELEMENT_SET_NO":999,"REV_AT_EPOCH":17305,"BSTAR":0.00013661768,"MEAN_MOTION_DOT":6.9e-7,"MEAN_MOTION_DDOT":0}},{"id":"55140","name":"ONEWEB-0532","constellationId":"oneweb","omm":{"OBJECT_NAME":"ONEWEB-0532","OBJECT_ID":"2023-004A","EPOCH":"2026-06-29T11:39:52.778592","MEAN_MOTION":13.17647813,"ECCENTRICITY":0.0002169,"INCLINATION":87.9129,"RA_OF_ASC_NODE":3.4172,"ARG_OF_PERICENTER":84.8053,"MEAN_ANOMALY":275.3326,"EPHEMERIS_TYPE":0,"CLASSIFICATION_TYPE":"U","NORAD_CAT_ID":55140,"ELEMENT_SET_NO":999,"REV_AT_EPOCH":16920,"BSTAR":0.00012082,"MEAN_MOTION_DOT":6e-7,"MEAN_MOTION_DDOT":0}},{"id":"55141","name":"ONEWEB-0533","constellationId":"oneweb","omm":{"OBJECT_NAME":"ONEWEB-0533","OBJECT_ID":"2023-004B","EPOCH":"2026-06-29T12:04:07.720032","MEAN_MOTION":13.12441047,"ECCENTRICITY":0.0001635,"INCLINATION":87.8951,"RA_OF_ASC_NODE":348.221,"ARG_OF_PERICENTER":88.684,"MEAN_ANOMALY":271.4475,"EPHEMERIS_TYPE":0,"CLASSIFICATION_TYPE":"U","NORAD_CAT_ID":55141,"ELEMENT_SET_NO":999,"REV_AT_EPOCH":16967,"BSTAR":0.000017026,"MEAN_MOTION_DOT":1.9e-7,"MEAN_MOTION_DDOT":0}},{"id":"55142","name":"ONEWEB-0541","constellationId":"oneweb","omm":{"OBJECT_NAME":"ONEWEB-0541","OBJECT_ID":"2023-004C","EPOCH":"2026-06-29T13:01:01.778880","MEAN_MOTION":13.11415535,"ECCENTRICITY":0.0001992,"INCLINATION":87.8888,"RA_OF_ASC_NODE":18.5988,"ARG_OF_PERICENTER":90.4825,"MEAN_ANOMALY":269.6531,"EPHEMERIS_TYPE":0,"CLASSIFICATION_TYPE":"U","NORAD_CAT_ID":55142,"ELEMENT_SET_NO":999,"REV_AT_EPOCH":16756,"BSTAR":0.0015254,"MEAN_MOTION_DOT":0.00000553,"MEAN_MOTION_DDOT":0}},{"id":"55143","name":"ONEWEB-0543","constellationId":"oneweb","omm":{"OBJECT_NAME":"ONEWEB-0543","OBJECT_ID":"2023-004D","EPOCH":"2026-06-29T09:07:11.402976","MEAN_MOTION":13.18685778,"ECCENTRICITY":0.0001661,"INCLINATION":87.9171,"RA_OF_ASC_NODE":333.0432,"ARG_OF_PERICENTER":99.5128,"MEAN_ANOMALY":260.6192,"EPHEMERIS_TYPE":0,"CLASSIFICATION_TYPE":"U","NORAD_CAT_ID":55143,"ELEMENT_SET_NO":999,"REV_AT_EPOCH":17130,"BSTAR":0.00020742,"MEAN_MOTION_DOT":9.5e-7,"MEAN_MOTION_DDOT":0}},{"id":"55144","name":"ONEWEB-0544","constellationId":"oneweb","omm":{"OBJECT_NAME":"ONEWEB-0544","OBJECT_ID":"2023-004E","EPOCH":"2026-06-29T10:46:41.179008","MEAN_MOTION":13.18708351,"ECCENTRICITY":0.0002228,"INCLINATION":87.9172,"RA_OF_ASC_NODE":333.0291,"ARG_OF_PERICENTER":170.3766,"MEAN_ANOMALY":189.741,"EPHEMERIS_TYPE":0,"CLASSIFICATION_TYPE":"U","NORAD_CAT_ID":55144,"ELEMENT_SET_NO":999,"REV_AT_EPOCH":17131,"BSTAR":0.0060936,"MEAN_MOTION_DOT":0.00002417,"MEAN_MOTION_DDOT":0}},{"id":"55145","name":"ONEWEB-0560","constellationId":"oneweb","omm":{"OBJECT_NAME":"ONEWEB-0560","OBJECT_ID":"2023-004F","EPOCH":"2026-06-29T10:37:00.410304","MEAN_MOTION":13.18688173,"ECCENTRICITY":0.0001822,"INCLINATION":87.9172,"RA_OF_ASC_NODE":333.0198,"ARG_OF_PERICENTER":104.3636,"MEAN_ANOMALY":255.7698,"EPHEMERIS_TYPE":0,"CLASSIFICATION_TYPE":"U","NORAD_CAT_ID":55145,"ELEMENT_SET_NO":999,"REV_AT_EPOCH":17132,"BSTAR":0.00014518,"MEAN_MOTION_DOT":7e-7,"MEAN_MOTION_DDOT":0}},{"id":"55146","name":"ONEWEB-0565","constellationId":"oneweb","omm":{"OBJECT_NAME":"ONEWEB-0565","OBJECT_ID":"2023-004G","EPOCH":"2026-06-29T10:27:19.194912","MEAN_MOTION":13.18686617,"ECCENTRICITY":0.0002236,"INCLINATION":87.9163,"RA_OF_ASC_NODE":333.0478,"ARG_OF_PERICENTER":100.689,"MEAN_ANOMALY":259.4494,"EPHEMERIS_TYPE":0,"CLASSIFICATION_TYPE":"U","NORAD_CAT_ID":55146,"ELEMENT_SET_NO":999,"REV_AT_EPOCH":17131,"BSTAR":0.00016985,"MEAN_MOTION_DOT":8e-7,"MEAN_MOTION_DDOT":0}},{"id":"55147","name":"ONEWEB-0567","constellationId":"oneweb","omm":{"OBJECT_NAME":"ONEWEB-0567","OBJECT_ID":"2023-004H","EPOCH":"2026-06-29T10:17:36.345696","MEAN_MOTION":13.18686807,"ECCENTRICITY":0.0002101,"INCLINATION":87.9171,"RA_OF_ASC_NODE":333.0344,"ARG_OF_PERICENTER":103.2076,"MEAN_ANOMALY":256.9291,"EPHEMERIS_TYPE":0,"CLASSIFICATION_TYPE":"U","NORAD_CAT_ID":55147,"ELEMENT_SET_NO":999,"REV_AT_EPOCH":17131,"BSTAR":0.000098137,"MEAN_MOTION_DOT":5.2e-7,"MEAN_MOTION_DDOT":0}},{"id":"55148","name":"ONEWEB-0569","constellationId":"oneweb","omm":{"OBJECT_NAME":"ONEWEB-0569","OBJECT_ID":"2023-004J","EPOCH":"2026-06-29T08:22:24.337920","MEAN_MOTION":13.13470751,"ECCENTRICITY":0.0002175,"INCLINATION":87.8975,"RA_OF_ASC_NODE":317.7992,"ARG_OF_PERICENTER":123.0399,"MEAN_ANOMALY":237.0939,"EPHEMERIS_TYPE":0,"CLASSIFICATION_TYPE":"U","NORAD_CAT_ID":55148,"ELEMENT_SET_NO":999,"REV_AT_EPOCH":17177,"BSTAR":-0.000042001,"MEAN_MOTION_DOT":-3e-8,"MEAN_MOTION_DDOT":0}},{"id":"55149","name":"ONEWEB-0570","constellationId":"oneweb","omm":{"OBJECT_NAME":"ONEWEB-0570","OBJECT_ID":"2023-004K","EPOCH":"2026-06-29T10:05:27.413952","MEAN_MOTION":13.18686402,"ECCENTRICITY":0.0002232,"INCLINATION":87.9169,"RA_OF_ASC_NODE":333.0338,"ARG_OF_PERICENTER":90.3851,"MEAN_ANOMALY":269.7537,"EPHEMERIS_TYPE":0,"CLASSIFICATION_TYPE":"U","NORAD_CAT_ID":55149,"ELEMENT_SET_NO":999,"REV_AT_EPOCH":17130,"BSTAR":0.000061504,"MEAN_MOTION_DOT":3.7e-7,"MEAN_MOTION_DDOT":0}},{"id":"55150","name":"ONEWEB-0571","constellationId":"oneweb","omm":{"OBJECT_NAME":"ONEWEB-0571","OBJECT_ID":"2023-004L","EPOCH":"2026-06-29T11:45:00.524160","MEAN_MOTION":13.18685703,"ECCENTRICITY":0.0002816,"INCLINATION":87.9169,"RA_OF_ASC_NODE":333.0195,"ARG_OF_PERICENTER":116.439,"MEAN_ANOMALY":243.7031,"EPHEMERIS_TYPE":0,"CLASSIFICATION_TYPE":"U","NORAD_CAT_ID":55150,"ELEMENT_SET_NO":999,"REV_AT_EPOCH":17132,"BSTAR":0.000082554,"MEAN_MOTION_DOT":4.5e-7,"MEAN_MOTION_DDOT":0}}]}