[
  {
    "name": "ONEWEB-0659",
    "noradId": "54678",
    "line1": "1 54678U 22166AN  26179.67408756 -.00001652  00000+0 -40310-2 0  9990",
    "line2": "2 54678  87.9245 241.7029 0002175  97.4571 262.6810 13.21837694173044"
  },
  {
    "name": "ONEWEB-0685",
    "noradId": "54679",
    "line1": "1 54679U 22166AP  26179.67398147  .00000001  00000+0 -28079-4 0  9999",
    "line2": "2 54679  87.9243 241.6947 0001883  87.6002 272.5348 13.21847780172936"
  },
  {
    "name": "ONEWEB-0712",
    "noradId": "54680",
    "line1": "1 54680U 22166AQ  26180.52352000  .00000011  00000+0 -42560-5 0  9998",
    "line2": "2 54680  87.9092 226.3248 0001587 100.4192 259.7118 13.16594967173684"
  },
  {
    "name": "ONEWEB-0714",
    "noradId": "54681",
    "line1": "1 54681U 22166AR  26179.67912991  .00000069  00000+0  13662-3 0  9995",
    "line2": "2 54681  87.9246 241.6914 0001782 103.2508 256.8825 13.21824962173056"
  },
  {
    "name": "ONEWEB-0532",
    "noradId": "55140",
    "line1": "1 55140U 23004A   26180.48602753  .00000060  00000+0  12082-3 0  9997",
    "line2": "2 55140  87.9129   3.4172 0002169  84.8053 275.3326 13.17647813169203"
  },
  {
    "name": "ONEWEB-0533",
    "noradId": "55141",
    "line1": "1 55141U 23004B   26180.50286713  .00000019  00000+0  17026-4 0  9993",
    "line2": "2 55141  87.8951 348.2210 0001635  88.6840 271.4475 13.12441047169671"
  },
  {
    "name": "ONEWEB-0541",
    "noradId": "55142",
    "line1": "1 55142U 23004C   26180.54238170  .00000553  00000+0  15254-2 0  9994",
    "line2": "2 55142  87.8888  18.5988 0001992  90.4825 269.6531 13.11415535167560"
  },
  {
    "name": "ONEWEB-0543",
    "noradId": "55143",
    "line1": "1 55143U 23004D   26180.37999309  .00000095  00000+0  20742-3 0  9994",
    "line2": "2 55143  87.9171 333.0432 0001661  99.5128 260.6192 13.18685778171301"
  },
  {
    "name": "ONEWEB-0544",
    "noradId": "55144",
    "line1": "1 55144U 23004E   26180.44908772  .00002417  00000+0  60936-2 0  9995",
    "line2": "2 55144  87.9172 333.0291 0002228 170.3766 189.7410 13.18708351171310"
  },
  {
    "name": "ONEWEB-0560",
    "noradId": "55145",
    "line1": "1 55145U 23004F   26180.44236586  .00000070  00000+0  14518-3 0  9992",
    "line2": "2 55145  87.9172 333.0198 0001822 104.3636 255.7698 13.18688173171321"
  },
  {
    "name": "ONEWEB-0565",
    "noradId": "55146",
    "line1": "1 55146U 23004G   26180.43563883  .00000080  00000+0  16985-3 0  9996",
    "line2": "2 55146  87.9163 333.0478 0002236 100.6890 259.4494 13.18686617171319"
  },
  {
    "name": "ONEWEB-0567",
    "noradId": "55147",
    "line1": "1 55147U 23004H   26180.42889289  .00000052  00000+0  98137-4 0  9996",
    "line2": "2 55147  87.9171 333.0344 0002101 103.2076 256.9291 13.18686807171315"
  },
  {
    "name": "ONEWEB-0569",
    "noradId": "55148",
    "line1": "1 55148U 23004J   26180.34889280 -.00000003  00000+0 -42001-4 0  9996",
    "line2": "2 55148  87.8975 317.7992 0002175 123.0399 237.0939 13.13470751171777"
  },
  {
    "name": "ONEWEB-0570",
    "noradId": "55149",
    "line1": "1 55149U 23004K   26180.42045618  .00000037  00000+0  61504-4 0  9999",
    "line2": "2 55149  87.9169 333.0338 0002232  90.3851 269.7537 13.18686402171304"
  },
  {
    "name": "ONEWEB-0571",
    "noradId": "55150",
    "line1": "1 55150U 23004L   26180.48958940  .00000045  00000+0  82554-4 0  9995",
    "line2": "2 55150  87.9169 333.0195 0002816 116.4390 243.7031 13.18685703171329"
  }
]